[
    {
        "CCSDS_OMM_VERS": "3.0",
        "COMMENT": "GENERATED VIA SPACE-TRACK.ORG API",
        "CREATION_DATE": "2025-04-13T03:46:00",
        "ORIGINATOR": "18 SPCS",
        "OBJECT_NAME": "NAVSTAR 76 (USA 266)",
        "OBJECT_ID": "2016-007A",
        "CENTER_NAME": "EARTH",
        "REF_FRAME": "TEME",
        "TIME_SYSTEM": "UTC",
        "MEAN_ELEMENT_THEORY": "SGP4",
        "EPOCH": "2025-04-12T14:13:33.973248",
        "MEAN_MOTION": "2.00572982",
        "ECCENTRICITY": "0.00875950",
        "INCLINATION": "55.2675",
        "RA_OF_ASC_NODE": "106.5504",
        "ARG_OF_PERICENTER": "242.2525",
        "MEAN_ANOMALY": "116.8846",
        "EPHEMERIS_TYPE": "0",
        "CLASSIFICATION_TYPE": "U",
        "NORAD_CAT_ID": "41328",
        "ELEMENT_SET_NO": "999",
        "REV_AT_EPOCH": "6720",
        "BSTAR": "0.00000000000000",
        "MEAN_MOTION_DOT": "0.00000042",
        "MEAN_MOTION_DDOT": "0.0000000000000",
        "SEMIMAJOR_AXIS": "26559.520",
        "PERIOD": "717.943",
        "APOAPSIS": "20414.033",
        "PERIAPSIS": "19948.737",
        "OBJECT_TYPE": "PAYLOAD",
        "RCS_SIZE": "LARGE",
        "COUNTRY_CODE": "US",
        "LAUNCH_DATE": "2016-02-05",
        "SITE": "AFETR",
        "DECAY_DATE": null,
        "FILE": "4700252",
        "GP_ID": "285482781",
        "TLE_LINE0": "0 NAVSTAR 76 (USA 266)",
        "TLE_LINE1": "1 41328U 16007A   25102.59275432  .00000042  00000-0  00000-0 0  9995",
        "TLE_LINE2": "2 41328  55.2675 106.5504 0087595 242.2525 116.8846  2.00572982 67201"
    }
]